0 SL-3 DEB
1 14632U 77002E   13281.49154917  .00000101  00000-0  59518-4 0  9643
2 14632 081.2738 287.3238 0051629 247.6382 229.8698 14.00331637702264
0 SL-3 DEB
1 14632U 77002E   13284.05157091  .00000038  00000-0  17487-4 0  9653
2 14632 081.2736 284.8797 0051692 240.3420 175.5966 14.00332649702626
0 SL-3 DEB
1 14632U 77002E   13286.05320429  .00000006  00000-0 -37654-5 0  9668
2 14632 081.2736 282.9687 0051761 234.6871 186.3017 14.00333145702906
0 SL-3 DEB
1 14632U 77002E   13288.49481465  .00000029  00000-0  11421-4 0  9674
2 14632 081.2739 280.6374 0051877 227.8284 254.9993 14.00333078703245
0 SL-3 DEB
1 14632U 77002E   13291.14075248  .00000082  00000-0  47059-4 0  9684
2 14632 081.2745 278.1111 0052004 220.3919 273.7633 14.00332692703611
0 SL-3 DEB
1 14632U 77002E   13293.42466385  .00000116  00000-0  69631-4 0  9692
2 14632 081.2747 275.9307 0052171 213.9184 267.5230 14.00332880703930
0 SL-3 DEB
1 14632U 77002E   13295.42585458  .00000089  00000-0  51232-4 0  9706
2 14632 081.2747 274.0203 0052270 208.2791 275.9843 14.00333544704219
